STARLINK-4559           
1 53574U 22101AZ  26068.38759460 -.00000261  00000+0  16623-5 0  9996
2 53574  53.2179  55.1888 0001295  93.4768 266.6372 15.08834681196408
LEMUR-2-STELLA          
1 60533U 24149BT  26068.72657350  .00013685  00000+0  85776-3 0  9992
2 60533  97.6764 150.9122 0001299  95.1117 265.0260 15.09464064 85488
